COSMOS 1408 DEB         
1 49527U 82092Q   23258.47564719  .00015588  00000+0  16907-2 0  9992
2 49527  82.3854 263.0725 0435282 220.4052 136.4052 14.37510543 95090
COSMOS 1408 DEB         
1 49529U 82092S   23258.31449077  .00086000  00000+0  41703-2 0  9995
2 49529  82.3501 198.6794 0161325  32.1117 328.9812 15.07378327 99337
COSMOS 1408 DEB         
1 49537U 82092AA  23258.36059518  .00012701  00000+0  66258-3 0  9996
2 49537  82.5661 202.4837 0136414 293.2013  65.4896 15.08009135100194
COSMOS 1408 DEB         
1 49539U 82092AC  23258.48874809  .00020187  00000+0  22091-2 0  9992
2 49539  82.1952 252.4856 0431451 251.2379 104.1545 14.37905647 94591
COSMOS 1408 DEB         
1 49590U 82092CF  23258.77590549  .00067351  00000+0  13389-2 0  9991
2 49590  82.5531 183.4747 0051716 224.8664 134.8399 15.45211552101414
COSMOS 1408 DEB         
1 49591U 82092CG  23258.29307858  .01891464  18570-2  69896-2 0  9997
2 49591  82.5605 198.6940 0009007 344.0627  16.0360 15.88549747 99669
COSMOS 1408 DEB         
1 49595U 82092CL  23258.29451102  .00325098  00000+0  10182-1 0  9996
2 49595  82.4120 211.6184 0121949  43.1198 317.9510 15.24960594 98554
COSMOS 1408 DEB         
1 49604U 82092CV  23258.75999794  .00025860  00000+0  75506-3 0  9999
2 49604  82.5173 177.6274 0046819 241.4560 118.1966 15.34061425101448
COSMOS 1408 DEB         
1 49607U 82092CY  23258.67063016  .00811264  00000+0  70012-2 0  9999
2 49607  82.8551 243.9549 0031638   6.8951 353.2738 15.66285729 99205
COSMOS 1408 DEB         
1 49619U 82092DL  23258.33873016  .00044078  00000+0  44921-2 0  9995
2 49619  81.9633 228.3791 0409667 253.4528 102.1301 14.44106705 94692
COSMOS 1408 DEB         
1 49622U 82092DP  23258.77504186  .00130796  00000+0  99562-3 0  9991
2 49622  82.5671 163.7293 0024306 100.0464 260.3543 15.71453417102560
COSMOS 1408 DEB         
1 49658U 82092FB  23258.28423824  .00212401  00000+0  25964-2 0  9993
2 49658  82.5759 183.8672 0043995 203.0029 156.9259 15.58549256100560
COSMOS 1408 DEB         
1 49663U 82092FG  23258.72694602  .01181205  76178-3  19597-2 0  9998
2 49663  82.5450 163.7933 0012321 155.3840 204.8030 16.03055386102435
COSMOS 1408 DEB         
1 49674U 82092FT  23258.20598370  .00209035  00000+0  14322-2 0  9997
2 49674  82.5869 167.6230 0011068 210.0034 150.0598 15.74051889102314
COSMOS 1408 DEB         
1 49708U 82092HD  23258.54333455  .00038296  00000+0  49171-3 0  9993
2 49708  82.6042 163.5463 0018311 283.4543  76.4672 15.58735713101901
COSMOS 1408 DEB         
1 49709U 82092HE  23258.54804255  .00049582  00000+0  12599-2 0  9998
2 49709  82.6204 191.2556 0057947 226.1396 133.5054 15.37666299100223
