[{"OBJECT_NAME":"COSMOS 1408 DEB","OBJECT_ID":"1982-092Q","EPOCH":"2023-09-15T11:24:55.917216","MEAN_MOTION":14.37510543,"ECCENTRICITY":0.0435282,"INCLINATION":82.3854,"RA_OF_ASC_NODE":263.0725,"ARG_OF_PERICENTER":220.4052,"MEAN_ANOMALY":136.4052,"EPHEMERIS_TYPE":0,"CLASSIFICATION_TYPE":"U","NORAD_CAT_ID":49527,"ELEMENT_SET_NO":999,"REV_AT_EPOCH":9509,"BSTAR":0.0016907,"MEAN_MOTION_DOT":0.00015588,"MEAN_MOTION_DDOT":0},{"OBJECT_NAME":"COSMOS 1408 DEB","OBJECT_ID":"1982-092S","EPOCH":"2023-09-15T07:32:52.002528","MEAN_MOTION":15.07378327,"ECCENTRICITY":0.0161325,"INCLINATION":82.3501,"RA_OF_ASC_NODE":198.6794,"ARG_OF_PERICENTER":32.1117,"MEAN_ANOMALY":328.9812,"EPHEMERIS_TYPE":0,"CLASSIFICATION_TYPE":"U","NORAD_CAT_ID":49529,"ELEMENT_SET_NO":999,"REV_AT_EPOCH":9933,"BSTAR":0.0041703,"MEAN_MOTION_DOT":0.00086,"MEAN_MOTION_DDOT":0},{"OBJECT_NAME":"COSMOS 1408 DEB","OBJECT_ID":"1982-092AA","EPOCH":"2023-09-15T08:39:15.423552","MEAN_MOTION":15.08009135,"ECCENTRICITY":0.0136414,"INCLINATION":82.5661,"RA_OF_ASC_NODE":202.4837,"ARG_OF_PERICENTER":293.2013,"MEAN_ANOMALY":65.4896,"EPHEMERIS_TYPE":0,"CLASSIFICATION_TYPE":"U","NORAD_CAT_ID":49537,"ELEMENT_SET_NO":999,"REV_AT_EPOCH":10019,"BSTAR":0.00066258,"MEAN_MOTION_DOT":0.00012701,"MEAN_MOTION_DDOT":0},{"OBJECT_NAME":"COSMOS 1408 DEB","OBJECT_ID":"1982-092AC","EPOCH":"2023-09-15T11:43:47.834976","MEAN_MOTION":14.37905647,"ECCENTRICITY":0.0431451,"INCLINATION":82.1952,"RA_OF_ASC_NODE":252.4856,"ARG_OF_PERICENTER":251.2379,"MEAN_ANOMALY":104.1545,"EPHEMERIS_TYPE":0,"CLASSIFICATION_TYPE":"U","NORAD_CAT_ID":49539,"ELEMENT_SET_NO":999,"REV_AT_EPOCH":9459,"BSTAR":0.0022091,"MEAN_MOTION_DOT":0.00020187,"MEAN_MOTION_DDOT":0},{"OBJECT_NAME":"COSMOS 1408 DEB","OBJECT_ID":"1982-092CF","EPOCH":"2023-09-15T18:37:18.234336","MEAN_MOTION":15.45211552,"ECCENTRICITY":0.0051716,"INCLINATION":82.5531,"RA_OF_ASC_NODE":183.4747,"ARG_OF_PERICENTER":224.8664,"MEAN_ANOMALY":134.8399,"EPHEMERIS_TYPE":0,"CLASSIFICATION_TYPE":"U","NORAD_CAT_ID":49590,"ELEMENT_SET_NO":999,"REV_AT_EPOCH":10141,"BSTAR":0.0013389,"MEAN_MOTION_DOT":0.00067351,"MEAN_MOTION_DDOT":0},{"OBJECT_NAME":"COSMOS 1408 DEB","OBJECT_ID":"1982-092CG","EPOCH":"2023-09-15T07:02:01.989312","MEAN_MOTION":15.88549747,"ECCENTRICITY":0.0009007,"INCLINATION":82.5605,"RA_OF_ASC_NODE":198.694,"ARG_OF_PERICENTER":344.0627,"MEAN_ANOMALY":16.036,"EPHEMERIS_TYPE":0,"CLASSIFICATION_TYPE":"U","NORAD_CAT_ID":49591,"ELEMENT_SET_NO":999,"REV_AT_EPOCH":9966,"BSTAR":0.0069896,"MEAN_MOTION_DOT":0.01891464,"MEAN_MOTION_DDOT":0.001857},{"OBJECT_NAME":"COSMOS 1408 DEB","OBJECT_ID":"1982-092CL","EPOCH":"2023-09-15T07:04:05.752128","MEAN_MOTION":15.24960594,"ECCENTRICITY":0.0121949,"INCLINATION":82.412,"RA_OF_ASC_NODE":211.6184,"ARG_OF_PERICENTER":43.1198,"MEAN_ANOMALY":317.951,"EPHEMERIS_TYPE":0,"CLASSIFICATION_TYPE":"U","NORAD_CAT_ID":49595,"ELEMENT_SET_NO":999,"REV_AT_EPOCH":9855,"BSTAR":0.010182,"MEAN_MOTION_DOT":0.00325098,"MEAN_MOTION_DDOT":0},{"OBJECT_NAME":"COSMOS 1408 DEB","OBJECT_ID":"1982-092CV","EPOCH":"2023-09-15T18:14:23.822016","MEAN_MOTION":15.34061425,"ECCENTRICITY":0.0046819,"INCLINATION":82.5173,"RA_OF_ASC_NODE":177.6274,"ARG_OF_PERICENTER":241.456,"MEAN_ANOMALY":118.1966,"EPHEMERIS_TYPE":0,"CLASSIFICATION_TYPE":"U","NORAD_CAT_ID":49604,"ELEMENT_SET_NO":999,"REV_AT_EPOCH":10144,"BSTAR":0.00075506,"MEAN_MOTION_DOT":0.0002586,"MEAN_MOTION_DDOT":0},{"OBJECT_NAME":"COSMOS 1408 DEB","OBJECT_ID":"1982-092CY","EPOCH":"2023-09-15T16:05:42.445824","MEAN_MOTION":15.66285729,"ECCENTRICITY":0.0031638,"INCLINATION":82.8551,"RA_OF_ASC_NODE":243.9549,"ARG_OF_PERICENTER":6.8951,"MEAN_ANOMALY":353.2738,"EPHEMERIS_TYPE":0,"CLASSIFICATION_TYPE":"U","NORAD_CAT_ID":49607,"ELEMENT_SET_NO":999,"REV_AT_EPOCH":9920,"BSTAR":0.0070012,"MEAN_MOTION_DOT":0.00811264,"MEAN_MOTION_DDOT":0},{"OBJECT_NAME":"COSMOS 1408 DEB","OBJECT_ID":"1982-092DL","EPOCH":"2023-09-15T08:07:46.285824","MEAN_MOTION":14.44106705,"ECCENTRICITY":0.0409667,"INCLINATION":81.9633,"RA_OF_ASC_NODE":228.3791,"ARG_OF_PERICENTER":253.4528,"MEAN_ANOMALY":102.1301,"EPHEMERIS_TYPE":0,"CLASSIFICATION_TYPE":"U","NORAD_CAT_ID":49619,"ELEMENT_SET_NO":999,"REV_AT_EPOCH":9469,"BSTAR":0.0044921,"MEAN_MOTION_DOT":0.00044078,"MEAN_MOTION_DDOT":0},{"OBJECT_NAME":"COSMOS 1408 DEB","OBJECT_ID":"1982-092DP","EPOCH":"2023-09-15T18:36:03.616704","MEAN_MOTION":15.71453417,"ECCENTRICITY":0.0024306,"INCLINATION":82.5671,"RA_OF_ASC_NODE":163.7293,"ARG_OF_PERICENTER":100.0464,"MEAN_ANOMALY":260.3543,"EPHEMERIS_TYPE":0,"CLASSIFICATION_TYPE":"U","NORAD_CAT_ID":49622,"ELEMENT_SET_NO":999,"REV_AT_EPOCH":10256,"BSTAR":0.00099562,"MEAN_MOTION_DOT":0.00130796,"MEAN_MOTION_DDOT":0},{"OBJECT_NAME":"COSMOS 1408 DEB","OBJECT_ID":"1982-092FB","EPOCH":"2023-09-15T06:49:18.183936","MEAN_MOTION":15.58549256,"ECCENTRICITY":0.0043995,"INCLINATION":82.5759,"RA_OF_ASC_NODE":183.8672,"ARG_OF_PERICENTER":203.0029,"MEAN_ANOMALY":156.9259,"EPHEMERIS_TYPE":0,"CLASSIFICATION_TYPE":"U","NORAD_CAT_ID":49658,"ELEMENT_SET_NO":999,"REV_AT_EPOCH":10056,"BSTAR":0.0025964,"MEAN_MOTION_DOT":0.00212401,"MEAN_MOTION_DDOT":0},{"OBJECT_NAME":"COSMOS 1408 DEB","OBJECT_ID":"1982-092FG","EPOCH":"2023-09-15T17:26:48.136128","MEAN_MOTION":16.03055386,"ECCENTRICITY":0.0012321,"INCLINATION":82.545,"RA_OF_ASC_NODE":163.7933,"ARG_OF_PERICENTER":155.384,"MEAN_ANOMALY":204.803,"EPHEMERIS_TYPE":0,"CLASSIFICATION_TYPE":"U","NORAD_CAT_ID":49663,"ELEMENT_SET_NO":999,"REV_AT_EPOCH":10243,"BSTAR":0.0019597,"MEAN_MOTION_DOT":0.01181205,"MEAN_MOTION_DDOT":0.00076178},{"OBJECT_NAME":"COSMOS 1408 DEB","OBJECT_ID":"1982-092FT","EPOCH":"2023-09-15T04:56:36.991680","MEAN_MOTION":15.74051889,"ECCENTRICITY":0.0011068,"INCLINATION":82.5869,"RA_OF_ASC_NODE":167.623,"ARG_OF_PERICENTER":210.0034,"MEAN_ANOMALY":150.0598,"EPHEMERIS_TYPE":0,"CLASSIFICATION_TYPE":"U","NORAD_CAT_ID":49674,"ELEMENT_SET_NO":999,"REV_AT_EPOCH":10231,"BSTAR":0.0014322,"MEAN_MOTION_DOT":0.00209035,"MEAN_MOTION_DDOT":0},{"OBJECT_NAME":"COSMOS 1408 DEB","OBJECT_ID":"1982-092HD","EPOCH":"2023-09-15T13:02:24.105120","MEAN_MOTION":15.58735713,"ECCENTRICITY":0.0018311,"INCLINATION":82.6042,"RA_OF_ASC_NODE":163.5463,"ARG_OF_PERICENTER":283.4543,"MEAN_ANOMALY":76.4672,"EPHEMERIS_TYPE":0,"CLASSIFICATION_TYPE":"U","NORAD_CAT_ID":49708,"ELEMENT_SET_NO":999,"REV_AT_EPOCH":10190,"BSTAR":0.00049171,"MEAN_MOTION_DOT":0.00038296,"MEAN_MOTION_DDOT":0},{"OBJECT_NAME":"COSMOS 1408 DEB","OBJECT_ID":"1982-092HE","EPOCH":"2023-09-15T13:09:10.876320","MEAN_MOTION":15.37666299,"ECCENTRICITY":0.0057947,"INCLINATION":82.6204,"RA_OF_ASC_NODE":191.2556,"ARG_OF_PERICENTER":226.1396,"MEAN_ANOMALY":133.5054,"EPHEMERIS_TYPE":0,"CLASSIFICATION_TYPE":"U","NORAD_CAT_ID":49709,"ELEMENT_SET_NO":999,"REV_AT_EPOCH":10022,"BSTAR":0.0012599,"MEAN_MOTION_DOT":0.00049582,"MEAN_MOTION_DDOT":0}]
